0 FENGYUN 1C DEB
1 31849U 99025CJP 13281.88417034  .00008266  00000-0  15056-2 0  2499
2 31849 097.9721 146.0350 0203836 119.7497 242.3681 14.53670344335162
0 FENGYUN 1C DEB
1 31849U 99025CJP 13283.39849254  .00008238  00000-0  14993-2 0  2500
2 31849 097.9735 147.4772 0203931 114.9487 247.3107 14.53695895335382
0 FENGYUN 1C DEB
1 31849U 99025CJP 13284.43096158  .00008543  00000-0  15555-2 0  2518
2 31849 097.9716 148.4610 0203458 111.4328 250.8946 14.53716665335539
0 FENGYUN 1C DEB
1 31849U 99025CJP 13285.39458013  .00009626  00000-0  17386-2 0  2524
2 31849 097.9714 149.3971 0205871 108.0025 254.4081 14.53744029335674
0 FENGYUN 1C DEB
1 31849U 99025CJP 13286.42700469  .00010225  00000-0  18667-2 0  2535
2 31849 097.9708 150.3506 0201570 105.5625 256.9154 14.53770409335829
0 FENGYUN 1C DEB
1 31849U 99025CJP 13287.80352552  .00011171  00000-0  20243-2 0  2549
2 31849 097.9706 151.6814 0203797 101.8232 260.6291 14.53805954336020
0 FENGYUN 1C DEB
1 31849U 99025CJP 13288.42295032  .00010936  00000-0  19850-2 0  2558
2 31849 097.9717 152.2658 0203155 099.7408 262.6542 14.53817099336117
0 FENGYUN 1C DEB
1 31849U 99025CJP 13289.86827514  .00011029  00000-0  20063-2 0  2566
2 31849 097.9689 153.6383 0202023 095.1854 267.2737 14.53850483336327
0 FENGYUN 1C DEB
1 31849U 99025CJP 13291.38237262  .00011345  00000-0  20494-2 0  2571
2 31849 097.9683 155.0931 0204187 090.4575 272.0106 14.53888410336546
0 FENGYUN 1C DEB
1 31849U 99025CJP 13292.41468966  .00011638  00000-0  21027-2 0  2582
2 31849 097.9674 156.0735 0203856 087.3224 275.1451 14.53914781336691
0 FENGYUN 1C DEB
1 31849U 99025CJP 13295.37389520  .00011691  00000-0  21105-2 0  2595
2 31849 097.9662 158.8898 0203558 077.9745 284.4186 14.53984510337124
